{
  "type": "FeatureCollection",
  "features": [
    {
      "type": "Feature",
      "properties": {
        "norad_id": 39160,
        "name": "VNREDSAT 1",
        "group": "resource",
        "lat": -80.26710094774168,
        "lon": 166.26881357483205,
        "alt_km": 685.6055198148697,
        "timestamp": "2025-12-11T08:58:26.771183+00:00",
        "meta_object_name": "VNREDSAT 1",
        "meta_object_id": "2013-021B",
        "meta_epoch": "2025-12-11T04:29:32.617248",
        "meta_mean_motion": 14.64918002,
        "meta_eccentricity": 0.0001309,
        "meta_inclination": 97.9371,
        "meta_ra_of_asc_node": 40.516,
        "meta_arg_of_pericenter": 78.5019,
        "meta_mean_anomaly": 281.6332,
        "meta_ephemeris_type": 0,
        "meta_classification_type": "U",
        "meta_norad_cat_id": 39160,
        "meta_element_set_no": 999,
        "meta_rev_at_epoch": 67276,
        "meta_bstar": 0.0001506,
        "meta_mean_motion_dot": 7.6e-06,
        "meta_mean_motion_ddot": 0,
        "tle_line1": "1 39160U 13021B   25345.18718307  .00000760  00000+0  15060-3 0  9997",
        "tle_line2": "2 39160  97.9371  40.5160 0001309  78.5019 281.6332 14.64918002672764"
      },
      "geometry": {
        "type": "Point",
        "coordinates": [
          166.26881357483205,
          -80.26710094774168
        ]
      }
    },
    {
      "type": "Feature",
      "properties": {
        "norad_id": 39227,
        "name": "ARIRANG-5 (KOMPSAT-5)",
        "group": "resource",
        "lat": 31.115389941062777,
        "lon": -5.67092320408397,
        "alt_km": 551.4182729495942,
        "timestamp": "2025-12-11T08:58:26.771193+00:00",
        "meta_object_name": "ARIRANG-5 (KOMPSAT-5)",
        "meta_object_id": "2013-042A",
        "meta_epoch": "2025-12-11T03:31:40.772352",
        "meta_mean_motion": 15.04491349,
        "meta_eccentricity": 0.0003795,
        "meta_inclination": 97.614,
        "meta_ra_of_asc_node": 169.4742,
        "meta_arg_of_pericenter": 59.1419,
        "meta_mean_anomaly": 301.018,
        "meta_ephemeris_type": 0,
        "meta_classification_type": "U",
        "meta_norad_cat_id": 39227,
        "meta_element_set_no": 999,
        "meta_rev_at_epoch": 67558,
        "meta_bstar": 0.00017972,
        "meta_mean_motion_dot": 2.455e-05,
        "meta_mean_motion_ddot": 0,
        "tle_line1": "1 39227U 13042A   25345.14699968  .00002455  00000+0  17972-3 0  9998",
        "tle_line2": "2 39227  97.6140 169.4742 0003795  59.1419 301.0180 15.04491349675582"
      },
      "geometry": {
        "type": "Point",
        "coordinates": [
          -5.67092320408397,
          31.115389941062777
        ]
      }
    },
    {
      "type": "Feature",
      "properties": {
        "norad_id": 39418,
        "name": "SKYSAT-A",
        "group": "resource",
        "lat": 52.81478743040828,
        "lon": -134.49708474340554,
        "alt_km": 532.4882650354111,
        "timestamp": "2025-12-11T08:58:26.771205+00:00",
        "meta_object_name": "SKYSAT-A",
        "meta_object_id": "2013-066C",
        "meta_epoch": "2025-12-11T02:03:34.691616",
        "meta_mean_motion": 15.11584453,
        "meta_eccentricity": 0.0020649,
        "meta_inclination": 97.4109,
        "meta_ra_of_asc_node": 35.3443,
        "meta_arg_of_pericenter": 242.5836,
        "meta_mean_anomaly": 117.3295,
        "meta_ephemeris_type": 0,
        "meta_classification_type": "U",
        "meta_norad_cat_id": 39418,
        "meta_element_set_no": 999,
        "meta_rev_at_epoch": 66005,
        "meta_bstar": 0.00036068,
        "meta_mean_motion_dot": 6.089e-05,
        "meta_mean_motion_ddot": 0,
        "tle_line1": "1 39418U 13066C   25345.08581819  .00006089  00000+0  36068-3 0  9998",
        "tle_line2": "2 39418  97.4109  35.3443 0020649 242.5836 117.3295 15.11584453660052"
      },
      "geometry": {
        "type": "Point",
        "coordinates": [
          -134.49708474340554,
          52.81478743040828
        ]
      }
    },
    {
      "type": "Feature",
      "properties": {
        "norad_id": 39419,
        "name": "DUBAISAT-2",
        "group": "resource",
        "lat": -73.66226234414634,
        "lon": 2.318984026854546,
        "alt_km": 542.9645501631321,
        "timestamp": "2025-12-11T08:58:26.771216+00:00",
        "meta_object_name": "DUBAISAT-2",
        "meta_object_id": "2013-066D",
        "meta_epoch": "2025-12-11T04:31:51.227040",
        "meta_mean_motion": 15.0833578,
        "meta_eccentricity": 0.0010839,
        "meta_inclination": 97.4456,
        "meta_ra_of_asc_node": 335.6438,
        "meta_arg_of_pericenter": 326.5445,
        "meta_mean_anomaly": 33.5097,
        "meta_ephemeris_type": 0,
        "meta_classification_type": "U",
        "meta_norad_cat_id": 39419,
        "meta_element_set_no": 999,
        "meta_rev_at_epoch": 65803,
        "meta_bstar": 0.00057811,
        "meta_mean_motion_dot": 8.931e-05,
        "meta_mean_motion_ddot": 0,
        "tle_line1": "1 39419U 13066D   25345.18878735  .00008931  00000+0  57811-3 0  9993",
        "tle_line2": "2 39419  97.4456 335.6438 0010839 326.5445  33.5097 15.08335780658034"
      },
      "geometry": {
        "type": "Point",
        "coordinates": [
          2.318984026854546,
          -73.66226234414634
        ]
      }
    },
    {
      "type": "Feature",
      "properties": {
        "norad_id": 39574,
        "name": "GPM-CORE",
        "group": "resource",
        "lat": -50.89323816761431,
        "lon": 72.33534280675487,
        "alt_km": 432.28399982968494,
        "timestamp": "2025-12-11T08:58:26.771227+00:00",
        "meta_object_name": "GPM-CORE",
        "meta_object_id": "2014-009C",
        "meta_epoch": "2025-12-11T04:50:05.196192",
        "meta_mean_motion": 15.44425881,
        "meta_eccentricity": 0.0009895,
        "meta_inclination": 64.9737,
        "meta_ra_of_asc_node": 217.8304,
        "meta_arg_of_pericenter": 245.0152,
        "meta_mean_anomaly": 114.9961,
        "meta_ephemeris_type": 0,
        "meta_classification_type": "U",
        "meta_norad_cat_id": 39574,
        "meta_element_set_no": 999,
        "meta_rev_at_epoch": 66877,
        "meta_bstar": 0.00028962,
        "meta_mean_motion_dot": 0.00013261,
        "meta_mean_motion_ddot": 0,
        "tle_line1": "1 39574U 14009C   25345.20144903  .00013261  00000+0  28962-3 0  9996",
        "tle_line2": "2 39574  64.9737 217.8304 0009895 245.0152 114.9961 15.44425881668778"
      },
      "geometry": {
        "type": "Point",
        "coordinates": [
          72.33534280675487,
          -50.89323816761431
        ]
      }
    },
    {
      "type": "Feature",
      "properties": {
        "norad_id": 39634,
        "name": "SENTINEL-1A",
        "group": "resource",
        "lat": 26.193114028162917,
        "lon": 174.69281006108886,
        "alt_km": 694.5431680626962,
        "timestamp": "2025-12-11T08:58:26.771238+00:00",
        "meta_object_name": "SENTINEL-1A",
        "meta_object_id": "2014-016A",
        "meta_epoch": "2025-12-11T03:20:10.723200",
        "meta_mean_motion": 14.59198678,
        "meta_eccentricity": 0.0001237,
        "meta_inclination": 98.1804,
        "meta_ra_of_asc_node": 350.4037,
        "meta_arg_of_pericenter": 83.9473,
        "meta_mean_anomaly": 276.1867,
        "meta_ephemeris_type": 0,
        "meta_classification_type": "U",
        "meta_norad_cat_id": 39634,
        "meta_element_set_no": 999,
        "meta_rev_at_epoch": 62259,
        "meta_bstar": -1.989e-05,
        "meta_mean_motion_dot": -1.4e-06,
        "meta_mean_motion_ddot": 0,
        "tle_line1": "1 39634U 14016A   25345.13901300 -.00000140  00000+0 -19890-4 0  9990",
        "tle_line2": "2 39634  98.1804 350.4037 0001237  83.9473 276.1867 14.59198678622595"
      },
      "geometry": {
        "type": "Point",
        "coordinates": [
          174.69281006108886,
          26.193114028162917
        ]
      }
    },
    {
      "type": "Feature",
      "properties": {
        "norad_id": 39731,
        "name": "KAZEOSAT 1",
        "group": "resource",
        "lat": -31.785301377931688,
        "lon": -127.90600506512604,
        "alt_km": 758.0887914391396,
        "timestamp": "2025-12-11T08:58:26.771248+00:00",
        "meta_object_name": "KAZEOSAT 1",
        "meta_object_id": "2014-024A",
        "meta_epoch": "2025-12-11T04:39:47.983104",
        "meta_mean_motion": 14.42060802,
        "meta_eccentricity": 0.0001079,
        "meta_inclination": 98.343,
        "meta_ra_of_asc_node": 57.1358,
        "meta_arg_of_pericenter": 95.6222,
        "meta_mean_anomaly": 264.509,
        "meta_ephemeris_type": 0,
        "meta_classification_type": "U",
        "meta_norad_cat_id": 39731,
        "meta_element_set_no": 999,
        "meta_rev_at_epoch": 61146,
        "meta_bstar": 8.8855e-05,
        "meta_mean_motion_dot": 2.49e-06,
        "meta_mean_motion_ddot": 0,
        "tle_line1": "1 39731U 14024A   25345.19430536  .00000249  00000+0  88855-4 0  9996",
        "tle_line2": "2 39731  98.3430  57.1358 0001079  95.6222 264.5090 14.42060802611465"
      },
      "geometry": {
        "type": "Point",
        "coordinates": [
          -127.90600506512604,
          -31.785301377931688
        ]
      }
    }
  ]
}